NORAD_CAT_ID,OBJECT_NAME,OBJECT_TYPE,EPOCH,MEAN_MOTION,ECCENTRICITY,INCLINATION,RA_OF_ASC_NODE,ARG_OF_PERICENTER,MEAN_ANOMALY,BSTAR,MEAN_MOTION_DOT,MEAN_MOTION_DDOT,TLE_LINE0,TLE_LINE1,TLE_LINE2,SEMIMAJOR_AXIS,PERIOD,APOGEE,PERIGEE,DECAYED
50841.0,STARLINK-3300,PAYLOAD,2022-12-31 17:17:05,15.0885676,0.0002855,53.2164,4.3979,26.7147,333.3992,-7.6098e-05,-1.5e-05,0.0,0 STARLINK-3300,1 50841U 22001AQ  22365.72020306 -.00001500  00000-0 -76098-4 0  9993,2 50841  53.2164   4.3979 0002855  26.7147 333.3992 15.08856760 54546,6917.829000000002,95.436,541.669,537.719,0.0
50841.0,STARLINK-3300,PAYLOAD,2023-01-01 06:00:10,15.08838766,0.000302,53.2169,2.0199,29.3678,330.7483,-0.00035452,-5.927e-05,0.0,0 STARLINK-3300,1 50841U 22001AQ  23001.25012650 -.00005927  00000-0 -35452-3 0  9997,2 50841  53.2169   2.0199 0003020  29.3678 330.7483 15.08838766 55928,6917.884,95.438,541.8380000000002,537.66,0.0
50841.0,STARLINK-3300,PAYLOAD,2023-01-01 09:10:57,15.08829279,0.0002964,53.216,1.4257,23.6854,336.4275,-0.00035179,-5.882e-05,0.0,0 STARLINK-3300,1 50841U 22001AQ  23001.38261325 -.00005882  00000-0 -35179-3 0  9992,2 50841  53.2160   1.4257 0002964  23.6854 336.4275 15.08829279 55949,6917.913000000001,95.438,541.8290000000002,537.7280000000002,0.0
50841.0,STARLINK-3300,PAYLOAD,2023-01-01 17:07:54,15.08833653,0.0002816999999999,53.2173,359.9385,25.4433,334.6698,-9.4397e-05,-1.7899999999999998e-05,0.0,0 STARLINK-3300,1 50841U 22001AQ  23001.71382380 -.00001790  00000-0 -94397-4 0  9996,2 50841  53.2173 359.9385 0002817  25.4433 334.6698 15.08833653 54697,6917.9,95.438,541.714,537.816,0.0
50841.0,STARLINK-3300,PAYLOAD,2023-01-02 05:50:58,15.08843947,0.0002826,53.2187,357.559,22.1836,337.9278,-8.2883e-05,-1.608e-05,0.0,0 STARLINK-3300,1 50841U 22001AQ  23002.24373552 -.00001608  00000-0 -82883-4 0  9991,2 50841  53.2187 357.5590 0002826  22.1836 337.9278 15.08843947 56076,6917.868,95.437,541.688,537.778,0.0
50841.0,STARLINK-3300,PAYLOAD,2023-01-02 09:01:44,15.08846171,0.0002935,53.2173,356.9639,25.5031,334.6105,-2.5955e-05,-7.02e-06,0.0,0 STARLINK-3300,1 50841U 22001AQ  23002.37621309 -.00000702  00000-0 -25955-4 0  9992,2 50841  53.2173 356.9639 0002935  25.5031 334.6105 15.08846171 54795,6917.861999999999,95.437,541.757,537.696,0.0
50841.0,STARLINK-3300,PAYLOAD,2023-01-02 16:58:40,15.08847188,0.0002907999999999,53.2167,355.4774,27.1415,332.9728,3.6288e-05,2.89e-06,0.0,0 STARLINK-3300,1 50841U 22001AQ  23002.70741010  .00000289  00000-0  36288-4 0  9990,2 50841  53.2167 355.4774 0002908  27.1415 332.9728 15.08847188 54843,6917.858,95.437,541.735,537.712,0.0
50841.0,STARLINK-3300,PAYLOAD,2023-01-03 08:52:32,15.08832452,0.0002901999999999,53.2179,352.5046,24.2022,335.9106,0.00015422,2.166e-05,0.0,0 STARLINK-3300,1 50841U 22001AQ  23003.36981876  .00002166  00000-0  15422-3 0  9991,2 50841  53.2179 352.5046 0002902  24.2022 335.9106 15.08832452 56249,6917.903,95.438,541.776,537.761,0.0
50841.0,STARLINK-3300,PAYLOAD,2023-01-04 08:43:18,15.08850325,0.0002887,53.2178,348.0428,29.7146,330.401,0.0001216,1.648e-05,0.0,0 STARLINK-3300,1 50841U 22001AQ  23004.36341225  .00001648  00000-0  12160-3 0  9990,2 50841  53.2178 348.0428 0002887  29.7146 330.4010 15.08850325 55096,6917.849,95.437,541.711,537.717,0.0
50841.0,STARLINK-3300,PAYLOAD,2023-01-05 08:34:05,15.08855725,0.0002833999999999,53.2172,343.5824,29.5482,330.56699999999995,0.00031382,4.712e-05,0.0,0 STARLINK-3300,1 50841U 22001AQ  23005.35700762  .00004712  00000-0  31382-3 0  9997,2 50841  53.2172 343.5824 0002834  29.5482 330.5670 15.08855725 55242,6917.831999999999,95.437,541.658,537.737,0.0
50841.0,STARLINK-3300,PAYLOAD,2023-01-05 14:55:37,15.088540900000002,0.0002878999999999,53.2171,342.3929,27.8912,332.2234,0.00020957,3.05e-05,0.0,0 STARLINK-3300,1 50841U 22001AQ  23005.62196583  .00003050  00000-0  20957-3 0  9997,2 50841  53.2171 342.3929 0002879  27.8912 332.2234 15.08854090 55285,6917.837,95.437,541.694,537.711,0.0
50841.0,STARLINK-3300,PAYLOAD,2023-01-06 06:49:29,15.08845897,0.0002779,53.2172,339.4198,38.6871,321.432,-2.878800000000001e-05,-7.47e-06,0.0,0 STARLINK-3300,1 50841U 22001AQ  23006.28436716 -.00000747  00000-0 -28788-4 0  9998,2 50841  53.2172 339.4198 0002779  38.6871 321.4320 15.08845897 56680,6917.861999999999,95.437,541.65,537.805,0.0
50841.0,STARLINK-3300,PAYLOAD,2023-01-06 22:43:21,15.08839154,0.000281,53.2175,336.4454,25.0171,335.0956,-0.00030323,-5.111e-05,0.0,0 STARLINK-3300,1 50841U 22001AQ  23006.94677145 -.00005111  00000-0 -30323-3 0  9991,2 50841  53.2175 336.4454 0002810  25.0171 335.0956 15.08839154 55486,6917.883000000002,95.438,541.692,537.804,0.0
50841.0,STARLINK-3300,PAYLOAD,2023-01-07 05:04:53,15.08855093,0.0002742,53.2182,335.2561,26.3371,333.776,5.0563e-06,-2.08e-06,0.0,0 STARLINK-3300,1 50841U 22001AQ  23007.21172601 -.00000208  00000-0  50563-5 0  9990,2 50841  53.2182 335.2561 0002742  26.3371 333.7760 15.08855093 55523,6917.834,95.437,541.596,537.802,0.0
50841.0,STARLINK-3300,PAYLOAD,2023-01-07 06:40:16,15.08855083,0.0002737,53.2182,334.9588,26.2572,333.8559,6.7566e-06,-1.81e-06,0.0,0 STARLINK-3300,1 50841U 22001AQ  23007.27796555 -.00000181  00000-0  67566-5 0  9997,2 50841  53.2182 334.9588 0002737  26.2572 333.8559 15.08855083 56835,6917.834,95.437,541.5930000000002,537.806,0.0
50841.0,STARLINK-3300,PAYLOAD,2023-01-07 20:58:46,15.08830488,0.0002928,53.2176,332.2835,37.7145,322.4052,-4.9777e-05,-1.081e-05,0.0,0 STARLINK-3300,1 50841U 22001AQ  23007.87414572 -.00001081  00000-0 -49777-4 0  9993,2 50841  53.2176 332.2835 0002928  37.7145 322.4052 15.08830488 56923,6917.9090000000015,95.438,541.8,537.749,0.0
50841.0,STARLINK-3300,PAYLOAD,2023-01-07 22:34:09,15.088165900000002,0.0002808,53.2172,331.9842,22.1298,337.9815,-4.590100000000001e-05,-1.019e-05,0.0,0 STARLINK-3300,1 50841U 22001AQ  23007.94039340 -.00001019  00000-0 -45901-4 0  9993,2 50841  53.2172 331.9842 0002808  22.1298 337.9815 15.08816590 55630,6917.951999999998,95.439,541.76,537.874,0.0
50841.0,STARLINK-3300,PAYLOAD,2023-01-08 06:31:05,15.08818359,0.0002988,53.217,330.4973,25.3938,334.72,4.5017e-07,-2.81e-06,0.0,0 STARLINK-3300,1 50841U 22001AQ  23008.27159431 -.00000281  00000-0  45017-6 0  9993,2 50841  53.2170 330.4973 0002988  25.3938 334.7200 15.08818359 55685,6917.946999999999,95.439,541.879,537.744,0.0
50841.0,STARLINK-3300,PAYLOAD,2023-01-08 20:49:32,15.0884709,0.0002745,53.2179,327.82199999999995,25.341,334.7716,0.0001085999999999,1.441e-05,0.0,0 STARLINK-3300,1 50841U 22001AQ  23008.86774120  .00001441  00000-0  10860-3 0  9999,2 50841  53.2179 327.8220 0002745  25.3410 334.7716 15.08847090 57076,6917.859,95.437,541.623,537.825,0.0
50841.0,STARLINK-3300,PAYLOAD,2023-01-09 14:18:47,15.08849039,0.0002637,53.2167,324.5511,24.9303,335.1816,0.0004222,6.439e-05,0.0,0 STARLINK-3300,1 50841U 22001AQ  23009.59638381  .00006439  00000-0  42220-3 0  9995,2 50841  53.2167 324.5511 0002637  24.9303 335.1816 15.08849039 55884,6917.853,95.437,541.5419999999998,537.894,0.0
50841.0,STARLINK-3300,PAYLOAD,2023-01-10 06:12:39,15.08838012,0.000261,53.2171,321.5773,25.8595,334.2527,5.1215e-05,5.27e-06,0.0,0 STARLINK-3300,1 50841U 22001AQ  23010.25878758  .00000527  00000-0  51215-4 0  9991,2 50841  53.2171 321.5773 0002610  25.8595 334.2527 15.08838012 57284,6917.886,95.438,541.557,537.946,0.0
50841.0,STARLINK-3300,PAYLOAD,2023-01-10 14:09:35,15.08828327,0.0002707,53.2162,320.0899,26.4254,333.6876,-0.00014975,-2.67e-05,0.0,0 STARLINK-3300,1 50841U 22001AQ  23010.58999125 -.00002670  00000-0 -14975-3 0  9993,2 50841  53.2162 320.0899 0002707  26.4254 333.6876 15.08828327 56033,6917.916,95.438,541.654,537.908,0.0
50841.0,STARLINK-3300,PAYLOAD,2023-01-10 20:31:08,15.08797679,0.0002746,53.2168,318.9019,25.5716,334.5412,-0.0007995,-0.00012976,0.0,0 STARLINK-3300,1 50841U 22001AQ  23010.85496443 -.00012976  00000-0 -79950-3 0  9992,2 50841  53.2168 318.9019 0002746  25.5716 334.5412 15.08797679 57374,6918.01,95.44,541.774,537.975,0.0
50841.0,STARLINK-3300,PAYLOAD,2023-01-11 02:52:41,15.08830676,0.0002799,53.2175,317.7124,25.7387,334.3744,7.273800000000001e-05,8.69e-06,0.0,0 STARLINK-3300,1 50841U 22001AQ  23011.11992236  .00000869  00000-0  72738-4 0  9997,2 50841  53.2175 317.7124 0002799  25.7387 334.3744 15.08830676 57416,6917.9090000000015,95.438,541.71,537.8380000000002,0.0
50841.0,STARLINK-3300,PAYLOAD,2023-01-11 06:03:27,15.08839487,0.0002672,53.2169,317.1171,27.0135,333.0996,9.479e-05,1.22e-05,0.0,0 STARLINK-3300,1 50841U 22001AQ  23011.25239820  .00001220  00000-0  94790-4 0  9999,2 50841  53.2169 317.1171 0002672  27.0135 333.0996 15.08839487 57437,6917.882,95.438,541.595,537.898,0.0
50841.0,STARLINK-3300,PAYLOAD,2023-01-11 20:21:53,15.08855651,0.0002565,53.2166,314.4394,23.5365,336.5744,0.00024078,3.547e-05,0.0,0 STARLINK-3300,1 50841U 22001AQ  23011.84854131  .00003547  00000-0  24078-3 0  9997,2 50841  53.2166 314.4394 0002565  23.5365 336.5744 15.08855651 56224,6917.833000000001,95.437,541.472,537.923,0.0
50841.0,STARLINK-3300,PAYLOAD,2023-01-12 02:43:27,15.08859565,0.0002729,53.2163,313.2502,25.9329,334.1799,0.00063193,9.789e-05,0.0,0 STARLINK-3300,1 50841U 22001AQ  23012.11350760  .00009789  00000-0  63193-3 0  9992,2 50841  53.2163 313.2502 0002729  25.9329 334.1799 15.08859565 57567,6917.821,95.436,541.573,537.798,0.0
50841.0,STARLINK-3300,PAYLOAD,2023-01-12 20:12:42,15.08831022,0.0002419,53.2157,309.9806,34.3047,325.81,-0.00021195,-3.659e-05,0.0,0 STARLINK-3300,1 50841U 22001AQ  23012.84216023 -.00003659  00000-0 -21195-3 0  9993,2 50841  53.2157 309.9806 0002419  34.3047 325.8100 15.08831022 57679,6917.908,95.438,541.446,538.099,0.0
50841.0,STARLINK-3300,PAYLOAD,2023-01-13 02:34:14,15.08843247,0.0002479,53.2169,308.7929,34.9831,325.1324,-5.263e-05,-1.126e-05,0.0,0 STARLINK-3300,1 50841U 22001AQ  23013.10711554 -.00001126  00000-0 -52630-4 0  9998,2 50841  53.2169 308.7929 0002479  34.9831 325.1324 15.08843247 57716,6917.87,95.437,541.45,538.021,0.0
